OBJECT_NAME,OBJECT_ID,EPOCH,MEAN_MOTION,ECCENTRICITY,INCLINATION,RA_OF_ASC_NODE,ARG_OF_PERICENTER,MEAN_ANOMALY,EPHEMERIS_TYPE,CLASSIFICATION_TYPE,NORAD_CAT_ID,ELEMENT_SET_NO,REV_AT_EPOCH,BSTAR,MEAN_MOTION_DOT,MEAN_MOTION_DDOT
STARLINK-2112,2021-005AU,2026-06-16T15:19:35.402880,15.12060920,.00003335,53.0672,305.3471,225.6094,134.4870,0,U,47391,999,29840,.13621309E-2,.23478E-3,0
STARLINK-2113,2021-005AV,2026-06-16T16:00:00.999936,15.86305162,.00038824,53.0414,246.7900,10.5586,32.2618,0,U,47392,999,595,.65917516E-3,.170953E-2,0
STARLINK-2119,2021-005BA,2026-06-16T13:52:18.046560,15.34540107,.00016118,53.1589,322.3772,309.1404,50.9455,0,U,47397,999,29818,.13092013E-2,.44317E-3,0
STARLINK-2121,2021-005BC,2026-06-16T15:29:05.995392,15.31695951,.00011541,53.1604,296.3532,102.3801,257.7330,0,U,47399,999,29855,.991369E-4,.2712E-4,0
STARLINK-2122,2021-005BD,2026-06-16T13:47:45.765600,15.31706663,.00012244,53.1612,273.5101,77.0804,283.0334,0,U,47400,999,29887,.14415926E-4,.82E-6,0
STARLINK-2123,2021-005BE,2026-06-16T15:02:17.907360,15.31687402,.00013209,53.1624,296.6993,92.7938,267.3215,0,U,47401,999,29854,.46638292E-4,.1082E-4,0
STARLINK-2128,2021-005BH,2026-06-16T16:00:00.999936,15.87627880,.00063077,53.0376,244.9562,349.5118,72.6072,0,U,47404,999,596,.77226847E-3,.215138E-2,0
STARLINK-2130,2021-005BJ,2026-06-15T17:22:49.337760,15.31713623,.00011461,53.1615,326.3705,82.1104,278.0027,0,U,47405,999,29804,.48689249E-4,.1147E-4,0
STARLINK-2134,2021-005BL,2026-06-16T14:09:27.583776,15.31702864,.00011091,53.1579,298.7091,88.2023,271.9105,0,U,47407,999,29850,.19066503E-3,.5556E-4,0
STARLINK-2135,2021-005BM,2026-06-16T14:15:22.591008,15.31699730,.00011906,53.1597,297.0804,89.1568,270.9570,0,U,47408,999,29853,.15117977E-3,.4329E-4,0
STARLINK-1954,2021-009H,2026-06-16T12:59:04.545312,15.41317227,.00017246,53.0517,265.7336,346.6102,13.4856,0,U,47555,999,29615,.12288652E-2,.51943E-3,0
STARLINK-1958,2021-009M,2026-06-16T13:13:00.079104,16.12513893,.00002746,53.0247,184.2752,156.9652,203.1395,0,U,47559,999,29728,.78421822E-3,.8914E-2,.48352726E-3
STARLINK-1962,2021-009R,2026-06-16T16:00:00.999936,15.93585278,.00041256,53.0334,224.2437,11.8497,341.7167,0,U,47563,999,601,.8644945E-3,.316189E-2,.49644174E-4
STARLINK-1964,2021-009T,2026-06-16T07:42:15.910272,16.02042574,.00098558,53.0308,194.1725,349.2848,10.7970,0,U,47565,999,29712,.76820201E-3,.453825E-2,.10250179E-3
STARLINK-1967,2021-009W,2026-06-16T16:00:00.999936,15.87016912,.00035644,53.0365,233.4060,18.3507,209.1367,0,U,47568,999,591,.6439214E-3,.17294E-2,0
STARLINK-1991,2021-009AR,2026-06-16T14:28:05.185920,16.03924685,.00110693,53.0291,196.1798,6.2825,353.8343,0,U,47587,999,29712,.76000479E-3,.503447E-2,.12802393E-3
STARLINK-1994,2021-009AT,2026-06-16T16:00:00.999936,15.81238166,.00035844,53.0382,234.6264,17.4493,303.2469,0,U,47589,999,589,.57293523E-3,.115901E-2,0
STARLINK-1995,2021-009AU,2026-06-16T12:11:13.482816,15.80536659,.00034262,53.0376,252.9465,13.7255,346.3859,0,U,47590,999,29632,.63693491E-3,.124938E-2,0
STARLINK-1997,2021-009AW,2026-06-16T16:00:00.999936,15.98381597,.00125812,53.0251,224.9366,1.7685,259.9821,0,U,47592,999,602,.86125754E-3,.413288E-2,.82448707E-4
STARLINK-2001,2021-009BA,2026-06-16T12:17:13.114176,15.68365712,.00009048,53.0395,259.9390,28.6141,331.4924,0,U,47596,999,29622,.50684969E-3,.57929E-3,0
STARLINK-2021,2021-009BJ,2026-06-16T16:00:00.999936,15.98405850,.00100065,53.0276,200.7972,15.3993,120.6479,0,U,47604,999,593,.81277177E-3,.389119E-2,.74114553E-4
STARLINK-1609,2021-012B,2026-06-16T13:48:42.918336,15.46614377,.00016861,53.1592,319.0830,249.2874,110.7954,0,U,47621,999,29532,.12395396E-2,.62834E-3,0
STARLINK-1655,2021-012D,2026-06-16T16:00:00.999936,16.00010845,.00024671,53.0248,191.3279,30.7340,196.0744,0,U,47623,999,603,.75292687E-3,.392756E-2,.76819817E-4
STARLINK-1704,2021-012F,2026-06-16T16:00:00.999936,15.65044197,.00034201,53.0469,306.9067,181.7646,328.8158,0,U,47625,999,594,.97021281E-2,.1069031E-1,0
STARLINK-1972,2021-012H,2026-06-16T09:24:44.042688,15.64747863,.00048049,53.0435,206.9240,345.6250,14.4627,0,U,47627,999,29682,.52825833E-3,.52132E-3,0
STARLINK-1973,2021-012J,2026-06-16T14:52:24.839616,15.31700436,.00014007,53.1597,324.7664,83.8032,276.3129,0,U,47628,999,29524,.10637174E-3,.2937E-4,0
STARLINK-1983,2021-012L,2026-06-16T13:13:33.573792,15.31702726,.00011861,53.1582,309.6620,89.2170,270.8967,0,U,47630,999,29542,.18995646E-3,.5534E-4,0
STARLINK-1992,2021-012N,2026-06-16T11:52:25.968000,15.31693011,.00013783,53.1594,233.0507,87.2686,272.8474,0,U,47632,999,29649,.15540929E-4,.117E-5,0
STARLINK-2015,2021-012U,2026-06-16T11:53:19.299264,15.36003509,.00057188,53.1573,232.1767,350.2565,9.8326,0,U,47638,999,29650,.10474048E-2,.37064E-3,0
STARLINK-2019,2021-012X,2026-06-16T16:00:00.999936,15.81584819,.00080082,53.0357,173.9525,21.9032,18.9347,0,U,47641,999,600,.33556954E-3,.68429E-3,0
