[
  {
    "name": "STARLINK-2112",
    "noradId": "47391",
    "line1": "1 47391U 21005AU  26167.63860420  .00023478  00000+0  13621-2 0  9991",
    "line2": "2 47391  53.0672 305.3471 0000333 225.6094 134.4870 15.12060920298405"
  },
  {
    "name": "STARLINK-2113",
    "noradId": "47392",
    "line1": "1 47392U 21005AV  26167.66667824  .00170953  00000+0  65918-3 0  9996",
    "line2": "2 47392  53.0414 246.7900 0003882  10.5586  32.2618 15.86305162  5956"
  },
  {
    "name": "STARLINK-2119",
    "noradId": "47397",
    "line1": "1 47397U 21005BA  26167.57798665  .00044317  00000+0  13092-2 0  9998",
    "line2": "2 47397  53.1589 322.3772 0001611 309.1404  50.9455 15.34540107298185"
  },
  {
    "name": "STARLINK-2121",
    "noradId": "47399",
    "line1": "1 47399U 21005BC  26167.64520828  .00002712  00000+0  99137-4 0  9991",
    "line2": "2 47399  53.1604 296.3532 0001154 102.3801 257.7330 15.31695951298550"
  },
  {
    "name": "STARLINK-2122",
    "noradId": "47400",
    "line1": "1 47400U 21005BD  26167.57483525  .00000082  00000+0  14416-4 0  9993",
    "line2": "2 47400  53.1612 273.5101 0001224  77.0804 283.0334 15.31706663298874"
  },
  {
    "name": "STARLINK-2123",
    "noradId": "47401",
    "line1": "1 47401U 21005BE  26167.62659615  .00001082  00000+0  46638-4 0  9997",
    "line2": "2 47401  53.1624 296.6993 0001320  92.7938 267.3215 15.31687402298548"
  },
  {
    "name": "STARLINK-2128",
    "noradId": "47404",
    "line1": "1 47404U 21005BH  26167.66667824  .00215138  00000+0  77227-3 0  9991",
    "line2": "2 47404  53.0376 244.9562 0006307 349.5118  72.6072 15.87627880  5960"
  },
  {
    "name": "STARLINK-2130",
    "noradId": "47405",
    "line1": "1 47405U 21005BJ  26166.72418215  .00001147  00000+0  48689-4 0  9990",
    "line2": "2 47405  53.1615 326.3705 0001146  82.1104 278.0027 15.31713623298048"
  },
  {
    "name": "STARLINK-2134",
    "noradId": "47407",
    "line1": "1 47407U 21005BL  26167.58990259  .00005556  00000+0  19067-3 0  9995",
    "line2": "2 47407  53.1579 298.7091 0001109  88.2023 271.9105 15.31702864298500"
  },
  {
    "name": "STARLINK-2135",
    "noradId": "47408",
    "line1": "1 47408U 21005BM  26167.59401147  .00004329  00000+0  15118-3 0  9990",
    "line2": "2 47408  53.1597 297.0804 0001190  89.1568 270.9570 15.31699730298534"
  },
  {
    "name": "STARLINK-1954",
    "noradId": "47555",
    "line1": "1 47555U 21009H   26167.54102483  .00051943  00000+0  12289-2 0  9992",
    "line2": "2 47555  53.0517 265.7336 0001724 346.6102  13.4856 15.41317227296150"
  },
  {
    "name": "STARLINK-1958",
    "noradId": "47559",
    "line1": "1 47559U 21009M   26167.55069536  .00891400  48353-3  78422-3 0  9997",
    "line2": "2 47559  53.0247 184.2752 0000274 156.9652 203.1395 16.12513893297289"
  },
  {
    "name": "STARLINK-1962",
    "noradId": "47563",
    "line1": "1 47563U 21009R   26167.66667824  .00316189  49644-4  86449-3 0  9997",
    "line2": "2 47563  53.0334 224.2437 0004125  11.8497 341.7167 15.93585278  6010"
  },
  {
    "name": "STARLINK-1964",
    "noradId": "47565",
    "line1": "1 47565U 21009T   26167.32101748  .00453825  10250-3  76820-3 0  9991",
    "line2": "2 47565  53.0308 194.1725 0009855 349.2848  10.7970 16.02042574297128"
  },
  {
    "name": "STARLINK-1967",
    "noradId": "47568",
    "line1": "1 47568U 21009W   26167.66667824  .00172940  00000+0  64392-3 0  9998",
    "line2": "2 47568  53.0365 233.4060 0003564  18.3507 209.1367 15.87016912  5917"
  },
  {
    "name": "STARLINK-1991",
    "noradId": "47587",
    "line1": "1 47587U 21009AR  26167.60283780  .00503447  12802-3  76000-3 0  9994",
    "line2": "2 47587  53.0291 196.1798 0011069   6.2825 353.8343 16.03924685297128"
  },
  {
    "name": "STARLINK-1994",
    "noradId": "47589",
    "line1": "1 47589U 21009AT  26167.66667824  .00115901  00000+0  57294-3 0  9998",
    "line2": "2 47589  53.0382 234.6264 0003584  17.4493 303.2469 15.81238166  5891"
  },
  {
    "name": "STARLINK-1995",
    "noradId": "47590",
    "line1": "1 47590U 21009AU  26167.50779494  .00124938  00000+0  63693-3 0  9990",
    "line2": "2 47590  53.0376 252.9465 0003426  13.7255 346.3859 15.80536659296320"
  },
  {
    "name": "STARLINK-1997",
    "noradId": "47592",
    "line1": "1 47592U 21009AW  26167.66667824  .00413288  82449-4  86126-3 0  9999",
    "line2": "2 47592  53.0251 224.9366 0012581   1.7685 259.9821 15.98381597  6021"
  },
  {
    "name": "STARLINK-2001",
    "noradId": "47596",
    "line1": "1 47596U 21009BA  26167.51195734  .00057929  00000+0  50685-3 0  9998",
    "line2": "2 47596  53.0395 259.9390 0000904  28.6141 331.4924 15.68365712296221"
  },
  {
    "name": "STARLINK-2021",
    "noradId": "47604",
    "line1": "1 47604U 21009BJ  26167.66667824  .00389119  74115-4  81277-3 0  9991",
    "line2": "2 47604  53.0276 200.7972 0010006  15.3993 120.6479 15.98405850  5931"
  },
  {
    "name": "STARLINK-1609",
    "noradId": "47621",
    "line1": "1 47621U 21012B   26167.57549674  .00062834  00000+0  12395-2 0  9999",
    "line2": "2 47621  53.1592 319.0830 0001686 249.2874 110.7954 15.46614377295320"
  },
  {
    "name": "STARLINK-1655",
    "noradId": "47623",
    "line1": "1 47623U 21012D   26167.66667824  .00392756  76820-4  75293-3 0  9993",
    "line2": "2 47623  53.0248 191.3279 0002467  30.7340 196.0744 16.00010845  6039"
  },
  {
    "name": "STARLINK-1704",
    "noradId": "47625",
    "line1": "1 47625U 21012F   26167.66667824  .01069031  00000+0  97021-2 0  9997",
    "line2": "2 47625  53.0469 306.9067 0003420 181.7646 328.8158 15.65044197  5941"
  },
  {
    "name": "STARLINK-1972",
    "noradId": "47627",
    "line1": "1 47627U 21012H   26167.39217642  .00052132  00000+0  52826-3 0  9996",
    "line2": "2 47627  53.0435 206.9240 0004804 345.6250  14.4627 15.64747863296824"
  },
  {
    "name": "STARLINK-1973",
    "noradId": "47628",
    "line1": "1 47628U 21012J   26167.61973194  .00002937  00000+0  10637-3 0  9995",
    "line2": "2 47628  53.1597 324.7664 0001400  83.8032 276.3129 15.31700436295242"
  },
  {
    "name": "STARLINK-1983",
    "noradId": "47630",
    "line1": "1 47630U 21012L   26167.55108303  .00005534  00000+0  18996-3 0  9995",
    "line2": "2 47630  53.1582 309.6620 0001186  89.2170 270.8967 15.31702726295420"
  },
  {
    "name": "STARLINK-1992",
    "noradId": "47632",
    "line1": "1 47632U 21012N   26167.49474500  .00000117  00000+0  15541-4 0  9991",
    "line2": "2 47632  53.1594 233.0507 0001378  87.2686 272.8474 15.31693011296491"
  },
  {
    "name": "STARLINK-2015",
    "noradId": "47638",
    "line1": "1 47638U 21012U   26167.49536226  .00037064  00000+0  10474-2 0  9990",
    "line2": "2 47638  53.1573 232.1767 0005718 350.2565   9.8326 15.36003509296501"
  },
  {
    "name": "STARLINK-2019",
    "noradId": "47641",
    "line1": "1 47641U 21012X   26167.66667824  .00068429  00000+0  33557-3 0  9999",
    "line2": "2 47641  53.0357 173.9525 0008008  21.9032  18.9347 15.81584819  6000"
  }
]